,accuracy,database_address,formatted_address,google_place_id,input_string,latitude,longitude,number_of_results,postcode,status,type
0,ROOFTOP,496 HUNTINGTON AVE,"496 Huntington Ave, Providence, RI 02907, USA",ChIJkwwoo31P5IkRXqAs4hcdwis,"496 HUNTINGTON AVE Providence, RI",41.8034086,-71.4381502,1,02907,OK,premise
1,ROOFTOP,13 IDA ST,"13 Ida St, Providence, RI 02909, USA",ChIJl5Xuju1F5IkR8EoiFEGCL24,"13 IDA ST Providence, RI",41.8180159,-71.457649,1,02909,OK,premise
2,ROOFTOP,90 AYRAUL ST,"90 Ayrault St, Providence, RI 02908, USA",ChIJ0b1vhQdF5IkRub8MlIK3oRU,"90 AYRAUL ST Providence, RI",41.8339614,-71.4293235,1,02908,OK,street_address
3,ROOFTOP,175 ONTARIO ST,"175 Ontario St, Providence, RI 02907, USA",ChIJf3SFS4FP5IkRfqffTFscUbc,"175 ONTARIO ST Providence, RI",41.7985435,-71.4242081,1,02907,OK,premise
4,ROOFTOP,135 RIVER AVE,"135 River Ave, Providence, RI 02908, USA",ChIJkev7tqVF5IkR7Zz-iOROtSY,"135 RIVER AVE Providence, RI",41.8315282,-71.4375735,1,02908,OK,premise
5,ROOFTOP,17 CRAWFORD RD.,"17 Crawford Rd, East Providence, RI 02914, USA",ChIJ6wbSJ6la5IkRDFa8yNiaRds,"17 CRAWFORD RD. Providence, RI",41.7981478,-71.37375039999999,1,02914,OK,premise
6,ROOFTOP,23 KINFIELD ST,"23 Kinfield St, Providence, RI 02909, USA",ChIJqY6hlu9F5IkRnR_N8uPEluY,"23 KINFIELD ST Providence, RI",41.820267,-71.46435579999999,1,02909,OK,street_address
7,ROOFTOP,670 N MAIN ST,"670 N Main St, Providence, RI 02904, USA",ChIJf5aG0OFE5IkRnqS8p7Ed-kc,"670 N MAIN ST Providence, RI",41.8389471,-71.4098916,1,02904,OK,premise
8,ROOFTOP,58 CANDACE ST,"58 Candace St, Providence, RI 02908, USA",ChIJsbvX6ANF5IkRwJKUgqhf0Go,"58 CANDACE ST Providence, RI",41.8367996,-71.4230949,1,02908,OK,premise
9,ROOFTOP,973 RESERVOIR AVE,"973 Reservoir Ave, Cranston, RI 02910, USA",ChIJMTkpBRlP5IkRfVSG4iWy8zc,"973 RESERVOIR AVE Providence, RI",41.7748934,-71.4500434,1,02910,OK,premise
10,ROOFTOP,21 BELVIDERE BLVD,"21 Belvidere Blvd, North Providence, RI 02911, USA",ChIJxwDebTRE5IkRNy9jy5q5dBY,"21 BELVIDERE BLVD Providence, RI",41.849959,-71.458784,1,02911,OK,street_address
11,ROOFTOP,29 HERSCHEL ST,"29 Herschel St, Providence, RI 02909, USA",ChIJSc3Xi9tF5IkRj-kAY_PWnek,"29 HERSCHEL ST Providence, RI",41.8342078,-71.4696609,1,02909,OK,premise
12,ROOFTOP,33 BRATTLE ST,"33 Brattle St, Providence, RI 02907, USA",ChIJz2-Vk4BF5IkRye8M8p246UI,"33 BRATTLE ST Providence, RI",41.8050508,-71.4339445,1,02907,OK,premise
13,ROOFTOP,1282 CHALKSTONE AVE,"1282 Chalkstone Ave, Providence, RI 02908, USA",ChIJszv55rhF5IkRmjcWmv_GC_g,"1282 CHALKSTONE AVE Providence, RI",41.83234590000001,-71.4512347,1,02908,OK,premise
14,ROOFTOP,214 GRAY ST,"214 Gray St, Providence, RI 02909, USA",ChIJQYDKrLhF5IkRCy5wi-EOBhY,"214 GRAY ST Providence, RI",41.831313,-71.4531794,1,02909,OK,premise
15,ROOFTOP,95 CHESTNUT,"95 Chestnut St, Providence, RI 02903, USA",ChIJF7zSXmtF5IkRcOkyZxxe6KE,"95 CHESTNUT Providence, RI",41.8186712,-71.4118885,1,02903,OK,premise
16,ROOFTOP,45 MITCHELL ST,"45 Mitchell St, Providence, RI 02907, USA",ChIJTYUsm4dP5IkRt9-pzpMC87o,"45 MITCHELL ST Providence, RI",41.801203,-71.42049999999999,1,02907,OK,street_address
17,ROOFTOP,142 WAVERLY ST,"142 Waverly St, Providence, RI 02907, USA",ChIJ1cuqboFF5IkR0BSljCO3MaY,"142 WAVERLY ST Providence, RI",41.8079892,-71.4340402,1,02907,OK,premise
18,ROOFTOP,217 MONTGOMERY AVE,"217 Montgomery Ave, Providence, RI 02905, USA",ChIJhZeRVO5P5IkRXQ9omq9670Y,"217 MONTGOMERY AVE Providence, RI",41.7861716,-71.397374,1,02905,OK,premise
19,ROOFTOP,32 BRATTLE ST,"32 Brattle St, Providence, RI 02907, USA",ChIJb_X0vYBF5IkRb5eUz7RoKew,"32 BRATTLE ST Providence, RI",41.8049867,-71.4344108,1,02907,OK,street_address
20,ROOFTOP,139 CAMDEN AVE,"139 Camden Ave, Providence, RI 02908, USA",ChIJXeH8qwFF5IkRIVqD-ZbbIX0,"139 CAMDEN AVE Providence, RI",41.839153,-71.426583,1,02908,OK,premise
21,ROOFTOP,158 LENOX AVE,"158 Lenox Ave, Providence, RI 02907, USA",ChIJN1nLzYVP5IkR1X7lEg4CtLQ,"158 LENOX AVE Providence, RI",41.7963101,-71.42072929999999,1,02907,OK,premise
22,ROOFTOP,57 JACKSON ST,"57 Jackson St, Pawtucket, RI 02860, USA",ChIJi_ZGc01D5IkRWQ6145fUfZw,"57 JACKSON ST Providence, RI",41.8834696,-71.3849578,1,02860,OK,street_address
23,ROOFTOP,201 PRINCETON AVE,"201 Princeton Ave, Providence, RI 02907, USA",ChIJt2k-B39F5IkR1HEnIV02ItY,"201 PRINCETON AVE Providence, RI",41.8054743,-71.4274658,1,02907,OK,premise
24,ROOFTOP,236 FREEMAN PARK WAY,"236 Freeman Pkwy, Providence, RI 02906, USA",ChIJSXmbodZE5IkRwjb5pyeAwk0,"236 FREEMAN PARK WAY Providence, RI",41.8386628,-71.3886308,1,02906,OK,premise
25,ROOFTOP,64 APPLETON ST,"64 Appleton St, Providence, RI 02909, USA",ChIJm1QhLZdF5IkRNTFp43nT_gs,"64 APPLETON ST Providence, RI",41.8202345,-71.444165,1,02909,OK,premise
26,RANGE_INTERPOLATED,115 RIVER ST,"115 W River St, Providence, RI 02904, USA",EikxMTUgVyBSaXZlciBTdCwgUHJvdmlkZW5jZSwgUkkgMDI5MDQsIFVTQSIaEhgKFAoSCRuFp6rjROSJESm_lmc-uXm_EHM,"115 RIVER ST Providence, RI",41.8422162,-71.41454329999999,1,02904,OK,street_address
27,ROOFTOP,165 HUDSON ST,"165 Hudson St, Providence, RI 02909, USA",ChIJzxv4IIVF5IkRGgO0ouwzWYs,"165 HUDSON ST Providence, RI",41.8134609,-71.4389829,1,02909,OK,street_address
28,ROOFTOP,27 DOUGLAS AVE,"27 Douglas Ave, Providence, RI 02908, USA",ChIJfdvBpRxF5IkR9TOCEYkkjI8,"27 DOUGLAS AVE Providence, RI",41.8352576,-71.41721749999999,1,02908,OK,street_address
29,ROOFTOP,32 LINWOOD AVE,"32 Linwood Ave, Providence, RI 02909, USA",ChIJk51tjIZF5IkRx87Mhpm1g7A,"32 LINWOOD AVE Providence, RI",41.8086456,-71.4384202,1,02909,OK,premise
30,ROOFTOP,15 MT VERNON ST,"15 Mt Vernon St, Providence, RI 02907, USA",ChIJwWqopmRF5IkRgYzyyXRL8tI,"15 MT VERNON ST Providence, RI",41.8063174,-71.41701859999999,1,02907,OK,premise
31,ROOFTOP,206 HANOVER ST,"206 Hanover St, Providence, RI 02907, USA",ChIJIa1KLIJF5IkRCvB1y-RJy2M,"206 HANOVER ST Providence, RI",41.80908609999999,-71.4326935,1,02907,OK,premise
32,ROOFTOP,80 VINCENT AVE,"80 Vincent Ave, North Providence, RI 02904, USA",ChIJ78igg49E5IkRTqM_uzF-ymc,"80 VINCENT AVE Providence, RI",41.8686765,-71.4207757,1,02904,OK,premise
33,ROOFTOP,167 ALLSTON ST,"167 Allston St, Providence, RI 02908, USA",ChIJ67dVJ6RF5IkR52m3t86Vjj4,"167 ALLSTON ST Providence, RI",41.8299373,-71.4359056,1,02908,OK,premise
34,ROOFTOP,123 PUMGANSETT ST,"123 Pumgansett St, Providence, RI 02908, USA",ChIJSzy1wP1E5IkRL6aQ4nytsKs,"123 PUMGANSETT ST Providence, RI",41.8420806,-71.4225846,1,02908,OK,premise
35,ROOFTOP,192 INDIANA AVE,"192 Indiana Ave, Providence, RI 02905, USA",ChIJuVonsvFP5IkRr4_DIP3pB3k,"192 INDIANA AVE Providence, RI",41.7900835,-71.3976294,1,02905,OK,premise
36,ROOFTOP,115 OHIO STREET,"115 Ohio Ave, Providence, RI 02905, USA",ChIJF-F8h_BP5IkR9S8_LMCga1g,"115 OHIO STREET Providence, RI",41.7903202,-71.3948346,1,02905,OK,premise
37,ROOFTOP,28 HENDRICK ST,"28 Hendrick St, Providence, RI 02908, USA",ChIJ3SaQVbxF5IkRVzWfMSMxGR0,"28 HENDRICK ST Providence, RI",41.8276799,-71.4447873,1,02908,OK,premise
38,ROOFTOP,103 NORWOOD AVE,"103 Norwood Ave, Cranston, RI 02905, USA",ChIJT15yEuhP5IkRiABQ0Gw2qVI,"103 NORWOOD AVE Providence, RI",41.779322,-71.395095,1,02905,OK,street_address
39,ROOFTOP,130 HAMILTON ST,"130 Hamilton St, Providence, RI 02907, USA",ChIJW2Tk_4ZP5IkRRPAa2j7lwC4,"130 HAMILTON ST Providence, RI",41.7994593,-71.4211467,1,02907,OK,premise
40,ROOFTOP,7 ALMY ST,"7 Almy St, Providence, RI 02909, USA",ChIJjeI1tp1F5IkRBbp8P5uJxXg,"7 ALMY ST Providence, RI",41.8169158,-71.4323769,1,02909,OK,premise
41,ROOFTOP,65 ACADEMY AVE,"65 Academy Ave, Providence, RI 02908, USA",ChIJ42q2F71F5IkRMjvJ84rNYFg,"65 ACADEMY AVE Providence, RI",41.8265352,-71.4434321,1,02908,OK,premise
42,ROOFTOP,20 HOLLIS ST,"20 Hollis St, Providence, RI 02907, USA",ChIJtzKtfYJF5IkRXAR4PO-F9fE,"20 HOLLIS ST Providence, RI",41.8105652,-71.4305126,1,02907,OK,premise
43,ROOFTOP,64 MITCHELL ST,"64 Mitchell St, Providence, RI 02907, USA",ChIJe1m8n4dP5IkRDa9ww00IchQ,"64 MITCHELL ST Providence, RI",41.8007724,-71.42091479999999,1,02907,OK,premise
44,ROOFTOP,1612 CHALKSTONE AVE,"1612 Chalkstone Ave, Providence, RI 02909, USA",ChIJOwGehMNF5IkRtBBf-77-ZwY,"1612 CHALKSTONE AVE Providence, RI",41.832291,-71.462216,1,02909,OK,street_address
45,ROOFTOP,814 BROAD ST,"814 Broad St, Providence, RI 02907, USA",ChIJVWsRU31F5IkRsqkbfS--TZA,"814 BROAD ST Providence, RI",41.8018343,-71.4183776,1,02907,OK,street_address
46,ROOFTOP,696 PLAINFIELD ST,"696 Plainfield St, Providence, RI 02909, USA",ChIJoyo18PZF5IkRQMBd80Rhm-0,"696 PLAINFIELD ST Providence, RI",41.811616,-71.46166099999999,1,02909,OK,street_address
47,ROOFTOP,15 CONCANNON ST,"15 Concannon St, Providence, RI 02904, USA",ChIJbT_willE5IkRvpZ-QdjZGDE,"15 CONCANNON ST Providence, RI",41.8537353,-71.43575729999999,1,02904,OK,premise
48,ROOFTOP,125 GOVERNOR ST,"125 Governor St, Providence, RI 02906, USA",ChIJz7JibTBF5IkRnvAK03B8Lmw,"125 GOVERNOR ST Providence, RI",41.8248283,-71.393613,1,02906,OK,premise
49,ROOFTOP,1046 DOUGLAS AVE,"1046 Douglas Ave, Providence, RI 02904, USA",ChIJ8_Rm0FpE5IkROVnYODiL-jg,"1046 DOUGLAS AVE Providence, RI",41.8552293,-71.44114739999999,1,02904,OK,street_address
50,RANGE_INTERPOLATED,11 VICTOR STREET,"11 Victor St, Providence, RI 02908, USA",EicxMSBWaWN0b3IgU3QsIFByb3ZpZGVuY2UsIFJJIDAyOTA4LCBVU0EiGhIYChQKEgmFKyfaHEXkiRG8LIGUbyrBAxAL,"11 VICTOR STREET Providence, RI",41.83723639999999,-71.4169864,2,02908,OK,street_address
51,ROOFTOP,185 UNIT ST,"185 Unit St, Providence, RI 02909, USA",ChIJXZIRvcBF5IkRERAXNTVAsSs,"185 UNIT ST Providence, RI",41.830412,-71.45454149999999,1,02909,OK,premise
52,ROOFTOP,185 NORWOOD AVE,"185 Norwood Ave, Cranston, RI 02905, USA",ChIJ_aCUDsJP5IkRz5aEu-gaUvE,"185 NORWOOD AVE Providence, RI",41.7786964,-71.3992761,1,02905,OK,premise
53,ROOFTOP,138 BORDEN AVE,"138 Borden Ave, Johnston, RI 02919, USA",ChIJOQIysAlG5IkRi5fIKHMZVuY,"138 BORDEN AVE Providence, RI",41.824151,-71.479607,1,02919,OK,street_address
54,ROOFTOP,52 BATTEY ST,"52 Battey St, Providence, RI 02903, USA",ChIJ_TnVfHRF5IkROOzHEejBeF4,"52 BATTEY ST Providence, RI",41.8191747,-71.4247647,1,02903,OK,premise
55,ROOFTOP,49 STADDEN ST,"49 Stadden St, Providence, RI 02907, USA",ChIJT5d5Ep5P5IkRgoQsYWUAVHY,"49 STADDEN ST Providence, RI",41.7881405,-71.42865019999999,1,02907,OK,premise
56,ROOFTOP,191 CHAPIN AVE,"191 Chapin Ave, Providence, RI 02909, USA",ChIJLyYXqoVF5IkR--2nZP6hIqk,"191 CHAPIN AVE Providence, RI",41.8120987,-71.4391955,1,02909,OK,premise
57,ROOFTOP,80 MERCY ST,"80 Mercy St, Providence, RI 02909, USA",ChIJ0xBBtfVF5IkRgxNJjo8tJkI,"80 MERCY ST Providence, RI",41.8104143,-71.4580548,1,02909,OK,premise
58,ROOFTOP,640 PUBLIC ST,"640 Public St, Providence, RI 02907, USA",ChIJR1aa7n1F5IkR7h1iwPPPzlE,"640 PUBLIC ST Providence, RI",41.8030207,-71.4229093,1,02907,OK,premise
59,ROOFTOP,168 LINWOOD AVE,"168 Linwood Ave, Providence, RI 02907, USA",ChIJfQlnAYFF5IkR92yhOzQXvVY,"168 LINWOOD AVE Providence, RI",41.8065579,-71.4332312,1,02907,OK,street_address
60,ROOFTOP,118 ERASTUS ST,"118 Erastus St, Providence, RI 02908, USA",ChIJZ9eKyr9F5IkRuR0FIelGKuQ,"118 ERASTUS ST Providence, RI",41.8272408,-71.4508312,1,02908,OK,premise
61,ROOFTOP,24 FALLON AVE,"24 Fallon Ave, Providence, RI 02908, USA",ChIJjzJd6bpF5IkR4esDg8CVT3E,"24 FALLON AVE Providence, RI",41.83294069999999,-71.4435958,1,02908,OK,premise
62,ROOFTOP,60 RALPH ST,"60 Ralph St, Providence, RI 02909, USA",ChIJsSDwtoxF5IkRUCHnKi3PBgM,"60 RALPH ST Providence, RI",41.8130755,-71.45319169999999,1,02909,OK,premise
63,ROOFTOP,37 BERGEN ST,"37 Bergen St, Providence, RI 02908, USA",ChIJu7b65qRF5IkROE05eTlPSY8,"37 BERGEN ST Providence, RI",41.8310842,-71.4401172,1,02908,OK,premise
64,ROOFTOP,60 SILVER SPRING ST,"60 Silver Spring St, Providence, RI 02904, USA",ChIJx5JIz-RE5IkR27rVk5M3GM0,"60 SILVER SPRING ST Providence, RI",41.8460531,-71.41738959999999,1,02904,OK,premise
65,ROOFTOP,11 PARKVIEW AVE,"11 Parkview Ave, Providence, RI 02905, USA",ChIJhRzL1IxP5IkR2EcWysC_xBc,"11 PARKVIEW AVE Providence, RI",41.7924196,-71.4062108,1,02905,OK,premise
66,ROOFTOP,119 DONELSON ST,"119 Donelson St, Providence, RI 02908, USA",ChIJt7KVLPxE5IkRBkQ067PiyLA,"119 DONELSON ST Providence, RI",41.8432564,-71.4235587,1,02908,OK,premise
67,GEOMETRIC_CENTER,DEXTER ST ,"Dexter St, Providence, RI, USA",ChIJC_5oqHhF5IkRUS27xQz_QVs,"DEXTER ST  Providence, RI",41.8080829,-71.428406,1,,OK,route
68,ROOFTOP,41 LYNCH ST,"41 Lynch St, Providence, RI 02908, USA",ChIJ0V7k3r9F5IkROcf5m0bh1Jo,"41 LYNCH ST Providence, RI",41.826458,-71.451955,1,02908,OK,street_address
69,ROOFTOP,221 EARLY ST,"221 Early St, Providence, RI 02907, USA",ChIJYWioBo9P5IkRYSfNW4soLGo,"221 EARLY ST Providence, RI",41.79407339999999,-71.415461,1,02907,OK,street_address
70,ROOFTOP,141 ALTHEA ST,"141 Althea St, Providence, RI 02907, USA",ChIJ2fjZFIFF5IkR2LepBQ6680Q,"141 ALTHEA ST Providence, RI",41.807661,-71.43418100000001,1,02907,OK,street_address
71,ROOFTOP,187 RANKIN AVE,"187 Rankin Ave, Providence, RI 02908, USA",ChIJIyFoEq5F5IkR3kh_7VwSmZE,"187 RANKIN AVE Providence, RI",41.83811619999999,-71.4406283,1,02908,OK,premise
72,ROOFTOP,40 LEANDER ST,"40 Leander St, Providence, RI 02909, USA",ChIJ0eI1OsJF5IkRRalSNfR0Zfo,"40 LEANDER ST Providence, RI",41.829517,-71.46064439999999,1,02909,OK,premise
73,ROOFTOP,3 HEMLOCK CT,"3 Hemlock Ct, Johnston, RI 02919, USA",ChIJMx5CRxJG5IkRWwnH0po5Sk4,"3 HEMLOCK CT Providence, RI",41.829279,-71.491244,1,02919,OK,street_address
74,RANGE_INTERPOLATED,65 SCHOOL ST,"65 School St, Providence, RI 02909, USA",Eic2NSBTY2hvb2wgU3QsIFByb3ZpZGVuY2UsIFJJIDAyOTA5LCBVU0EiGhIYChQKEgnnVbUkmkXkiRFaSutNGmJNkhBB,"65 SCHOOL ST Providence, RI",41.819083,-71.4404253,1,02909,OK,street_address
75,ROOFTOP,244 VEAZIE ST,"244 Veazie St, Providence, RI 02904, USA",ChIJqcTWWldE5IkR-A_u-8W70Vs,"244 VEAZIE ST Providence, RI",41.8516964,-71.4349788,1,02904,OK,premise
76,ROOFTOP,53 LEAH ST,"53 Leah St, Providence, RI 02908, USA",ChIJLbJWzr9F5IkRUUymtB4ssH0,"53 LEAH ST Providence, RI",41.8268975,-71.45124860000001,1,02908,OK,premise
77,ROOFTOP,302 PONTIAC AVE,"302 Pontiac Ave, Cranston, RI 02910, USA",ChIJe2T5QwlP5IkRaylIAvPjVVk,"302 PONTIAC AVE Providence, RI",41.7792666,-71.43473689999999,1,02910,OK,premise
78,ROOFTOP,15 LISI LN,"15 Lisi Ln, Providence, RI 02904, USA",ChIJEyVLaPNE5IkRxl8qco_rNs4,"15 LISI LN Providence, RI",41.858603,-71.423075,1,02904,OK,street_address
79,ROOFTOP,304 VEAZIE ST,"304 Veazie St, Providence, RI 02904, USA",ChIJs4Hx81lE5IkRpeQ9eEZBNW4,"304 VEAZIE ST Providence, RI",41.853311,-71.435467,1,02904,OK,street_address
80,ROOFTOP,101 RUTHERGLEN AVE,"101 Rutherglen Ave, Providence, RI 02907, USA",ChIJYXDJX55P5IkR2Xh8tmAjQeI,"101 RUTHERGLEN AVE Providence, RI",41.78723,-71.427127,1,02907,OK,street_address
81,ROOFTOP,67 MAPLEHURST AVE,"67 Maplehurst Ave, Providence, RI 02908, USA",ChIJ8039J6NF5IkR5dkpvrJsL1s,"67 MAPLEHURST AVE Providence, RI",41.826933,-71.441075,1,02908,OK,street_address
82,ROOFTOP,319 PROVIDENCE ST,"319 Providence St, West Warwick, RI 02893, USA",ChIJze0O5bxL5IkRK31IrmxRV9g,"319 PROVIDENCE ST Providence, RI",41.7116583,-71.5046752,1,02893,OK,premise
83,ROOFTOP,165 POCASSET AVE,"165 Pocasset Ave, Providence, RI 02909, USA",ChIJpVdoz_RF5IkRJgH8VYgJmgE,"165 POCASSET AVE Providence, RI",41.8106988,-71.4543751,1,02909,OK,street_address
84,ROOFTOP,2 DIXON ST,"2 Dixon St, Providence, RI 02907, USA",ChIJu4GHK6NP5IkR6f9pLsNWcVE,"2 DIXON ST Providence, RI",41.779507,-71.418283,1,02907,OK,street_address
85,ROOFTOP,107 DELAINE STREET,"107 Delaine St, Providence, RI 02909, USA",ChIJSUslsJBF5IkR2QM0fFj0Xf8,"107 DELAINE STREET Providence, RI",41.8192987,-71.4427237,1,02909,OK,street_address
86,ROOFTOP,151 ATLANTIC AVE,"151 Atlantic Ave, Providence, RI 02907, USA",ChIJn2Llj4ZP5IkRp9Zt-hohecc,"151 ATLANTIC AVE Providence, RI",41.7978348,-71.42175519999999,1,02907,OK,premise
87,RANGE_INTERPOLATED,3 BECKER AVE,"3 Becker Ave, Riverside, RI 02915, USA",EiYzIEJlY2tlciBBdmUsIFJpdmVyc2lkZSwgUkkgMDI5MTUsIFVTQSIaEhgKFAoSCRkrZSBDUOSJEcXEl-vVuCDTEAM,"3 BECKER AVE Providence, RI",41.768334,-71.3483456,2,02915,OK,street_address
88,ROOFTOP,52 JUDITH ST,"52 Judith St, Providence, RI 02909, USA",ChIJ8SDW-Y5F5IkRJbR9mahkD1Q,"52 JUDITH ST Providence, RI",41.8129909,-71.4455133,1,02909,OK,premise
89,ROOFTOP,228 NARRAGANSETT AVE,"228 Narragansett Ave, Providence, RI 02907, USA",ChIJVfpQQZlP5IkROnRj5J6flzg,"228 NARRAGANSETT AVE Providence, RI",41.7868636,-71.4228629,1,02907,OK,premise
90,ROOFTOP,112 DABOLL ST,"112 Daboll St, Providence, RI 02907, USA",ChIJb3lh2H1F5IkR06pWOEsDFjA,"112 DABOLL ST Providence, RI",41.8040885,-71.42395300000001,1,02907,OK,premise
91,ROOFTOP,27 DETROIT AVE,"27 Detroit Ave, Providence, RI 02907, USA",ChIJlRN0PIxP5IkRPS2ZPXHMFIg,"27 DETROIT AVE Providence, RI",41.7939506,-71.4110895,1,02907,OK,premise
92,ROOFTOP,74 LAMBERT STREET,"74 Lambert St, Cranston, RI 02910, USA",ChIJRXEivg1P5IkRe6i1tJBMV20,"74 LAMBERT STREET Providence, RI",41.782688,-71.44026550000001,1,02910,OK,premise
93,ROOFTOP,306 MANTON AVE,"306 Manton Ave, Providence, RI 02909, USA",ChIJW4gL4alF5IkRUM16Py1kUgY,"306 MANTON AVE Providence, RI",41.8226451,-71.45047079999999,1,02909,OK,street_address
94,ROOFTOP,732 ATWELLS AVE,"732 Atwells Ave, Providence, RI 02909, USA",ChIJH7saqKJF5IkRRzyERZHV9P0,"732 ATWELLS AVE Providence, RI",41.8245306,-71.4410872,1,02909,OK,premise
95,ROOFTOP,122 WHITEHALL ST,"122 Whitehall St, Providence, RI 02909, USA",ChIJh6Zh3ohF5IkRlzANwjtg37k,"122 WHITEHALL ST Providence, RI",41.809561,-71.444485,1,02909,OK,street_address
96,ROOFTOP,25 MT VERNON ST,"25 Mt Vernon St, Providence, RI 02907, USA",ChIJKzvFoGRF5IkRZQUajPd7C9g,"25 MT VERNON ST Providence, RI",41.80611409999999,-71.4169258,1,02907,OK,premise
97,ROOFTOP,58 GODDARD ST,"58 Goddard St, Providence, RI 02908, USA",ChIJjQunkQRF5IkR9hi29B6kAik,"58 GODDARD ST Providence, RI",41.834584,-71.4201064,1,02908,OK,street_address
98,GEOMETRIC_CENTER,312 PROVIDENCE ST,"Providence St, Providence, RI, USA",ChIJM0vBwW9F5IkReJ0hzrg17XA,"312 PROVIDENCE ST Providence, RI",41.8118653,-71.4170225,1,,OK,route
99,ROOFTOP,328 POCASSET AVE,"328 Pocasset Ave, Providence, RI 02909, USA",ChIJM_yTA19P5IkRekLWv-_y-iA,"328 POCASSET AVE Providence, RI",41.8058922,-71.45728299999999,1,02909,OK,street_address
100,ROOFTOP,10 LARCHMONT AVE,"10 Larchmont Ave, North Providence, RI 02911, USA",ChIJUfS74JlG5IkRjeAemPPLmmY,"10 LARCHMONT AVE Providence, RI",41.867227,-71.48899899999999,1,02911,OK,street_address
101,ROOFTOP,36 BALTIMORE ST,"36 Baltimore St, Providence, RI 02909, USA",ChIJC3nJqsNF5IkR9AZ2dd1Cr3I,"36 BALTIMORE ST Providence, RI",41.8304611,-71.4624829,1,02909,OK,street_address
102,ROOFTOP,52 CALLA ST,"52 Calla St, Providence, RI 02905, USA",ChIJvxbsWO1P5IkRIZKqXwPnjcc,"52 CALLA ST Providence, RI",41.7895273,-71.4052012,1,02905,OK,street_address
103,ROOFTOP,190 JEWETT ST,"190 Jewett St, Providence, RI 02908, USA",ChIJKyk83wVF5IkRAGnmlajemvc,"190 JEWETT ST Providence, RI",41.832645,-71.42388199999999,1,02908,OK,street_address
104,ROOFTOP,38 DARTMOUTH AVE,"38 Dartmouth Ave, Providence, RI 02907, USA",ChIJqfIFvHtF5IkRI0ZqZUUAK-Q,"38 DARTMOUTH AVE Providence, RI",41.808348,-71.42211,1,02907,OK,premise
105,ROOFTOP,9 PARKIS AVE,"9 Parkis Ave, Providence, RI 02907, USA",ChIJxTGOTHpF5IkRF-kkji_Src4,"9 PARKIS AVE Providence, RI",41.8094093,-71.4221335,1,02907,OK,premise
106,RANGE_INTERPOLATED,44 MAPLE ST,"44 Maple St, Providence, RI 02903, USA",EiY0NCBNYXBsZSBTdCwgUHJvdmlkZW5jZSwgUkkgMDI5MDMsIFVTQSIaEhgKFAoSCRUAw39uReSJEW2dgcwOwEvNECw,"44 MAPLE ST Providence, RI",41.8151677,-71.4149722,1,02903,OK,street_address
107,ROOFTOP,16 BASSWOOD AVE,"16 Basswood Ave, Providence, RI 02908, USA",ChIJh1kzTTVE5IkRMnP5OuOarmA,"16 BASSWOOD AVE Providence, RI",41.8459453,-71.454522,1,02908,OK,premise
108,ROOFTOP,10 TUXEDO AVE,"10 Tuxedo Ave, Providence, RI 02909, USA",ChIJGeRuf6JF5IkRhQFE6DBOR3U,"10 TUXEDO AVE Providence, RI",41.824103,-71.438594,1,02909,OK,street_address
109,ROOFTOP,121 GROVE ST,"121 Grove St, Providence, RI 02909, USA",ChIJLeqY9p5F5IkRXmwA930QcHU,"121 GROVE ST Providence, RI",41.819871,-71.433176,1,02909,OK,street_address
110,ROOFTOP,209 PROGRESS AVE,"209 Progress Ave, Providence, RI 02909, USA",ChIJU7UK9YpF5IkR8aqOHxkfZsI,"209 PROGRESS AVE Providence, RI",41.8082164,-71.45080469999999,1,02909,OK,street_address
111,ROOFTOP,190 WATERMAN ST,"190 Waterman St, Providence, RI 02906, USA",ChIJqffRpy9F5IkRzJry7nY0j7g,"190 WATERMAN ST Providence, RI",41.828171,-71.392129,1,02906,OK,street_address
112,ROOFTOP,21 SEARLE ST,"21 Searle St, Providence, RI 02905, USA",ChIJTUus6mBF5IkRyt4CWmBm3SE,"21 SEARLE ST Providence, RI",41.8032575,-71.40769519999999,1,02905,OK,premise
113,ROOFTOP,105 ALTHEA ST,"105 Althea St, Providence, RI 02907, USA",ChIJ57V3CoFF5IkRN4bGVxcGmAM,"105 ALTHEA ST Providence, RI",41.8072919,-71.43291099999999,1,02907,OK,street_address
114,ROOFTOP,195 HOME AVE,"195 Home Ave, Providence, RI 02908, USA",ChIJnSsMDrFF5IkRjiWDlzyKyGc,"195 HOME AVE Providence, RI",41.8380917,-71.44545099999999,1,02908,OK,premise
115,ROOFTOP,216 PROGRESS AVE,"216 Progress Ave, Providence, RI 02909, USA",ChIJ2wbviopF5IkRNAM7et1YCEM,"216 PROGRESS AVE Providence, RI",41.8079803,-71.4508312,1,02909,OK,premise
116,ROOFTOP,157 HAMILTON ST,"157 Hamilton St, Providence, RI 02907, USA",ChIJ4-GwX4ZP5IkRlhd1EHFh2-s,"157 HAMILTON ST Providence, RI",41.7983613,-71.4208684,1,02907,OK,premise
117,ROOFTOP,12 FLORENCE ST,"12 Florence St, Providence, RI 02909, USA",ChIJjVPbTJFF5IkRS8XJzPmrhVs,"12 FLORENCE ST Providence, RI",41.8205588,-71.4467763,1,02909,OK,premise
118,ROOFTOP,69 SUPERIOR ST,"69 Superior St, Providence, RI 02907, USA",ChIJKRI9cIJF5IkR8M30t2KZ9AE,"69 SUPERIOR ST Providence, RI",41.8100688,-71.43065299999999,1,02907,OK,premise
119,ROOFTOP,12 HALTON ST,"12 Halton St, Providence, RI 02907, USA",ChIJO32EQH5P5IkROsDufPtkNJ8,"12 HALTON ST Providence, RI",41.8028745,-71.4341804,1,02907,OK,premise
120,RANGE_INTERPOLATED,50 CYPRESS ST,"50 Cypress St, Providence, RI 02906, USA",Eig1MCBDeXByZXNzIFN0LCBQcm92aWRlbmNlLCBSSSAwMjkwNiwgVVNBIhoSGAoUChIJX__CAt5E5IkRi3-zvR8njI8QMg,"50 CYPRESS ST Providence, RI",41.8423032,-71.40581379999999,1,02906,OK,street_address
121,ROOFTOP,75 GALILEO AVE,"75 Galileo Ave, Providence, RI 02909, USA",ChIJ_6y0CsdF5IkRiZTeaNsvkEY,"75 GALILEO AVE Providence, RI",41.8339735,-71.45519089999999,1,02909,OK,premise
122,ROOFTOP,46 LINDY AVE,"46 Lindy Ave, Providence, RI 02908, USA",ChIJ1StCvrlF5IkRVb2dyg_3gIU,"46 LINDY AVE Providence, RI",41.8340501,-71.449347,1,02908,OK,premise
123,ROOFTOP,196 GRAY ST,"196 Gray St, Providence, RI 02909, USA",ChIJQda9UL9F5IkR37xOB8kHc5s,"196 GRAY ST Providence, RI",41.8307207,-71.4532014,1,02909,OK,premise
124,ROOFTOP,217 SUMTER ST,"217 Sumter St, Providence, RI 02907, USA",ChIJU80IXYRP5IkRSW7MAJka-Rw,"217 SUMTER ST Providence, RI",41.7953872,-71.42239909999999,1,02907,OK,premise
125,ROOFTOP,53 LABAN ST,"53 Laban St, Providence, RI 02909, USA",ChIJoQWu741F5IkRFvvjFnyIHEQ,"53 LABAN ST Providence, RI",41.8153784,-71.44862169999999,1,02909,OK,premise
126,ROOFTOP,72 WEBSTER AVE,"72 Webster Ave, Providence, RI 02909, USA",ChIJjZdPCI1F5IkRmtR8JjXG5FQ,"72 WEBSTER AVE Providence, RI",41.8148263,-71.4508336,1,02909,OK,premise
127,ROOFTOP,231 RHODES ST,"231 Rhodes St, Providence, RI 02905, USA",ChIJnefbuWdF5IkR2ZBFDp2_dJw,"231 RHODES ST Providence, RI",41.8079921,-71.408391,1,02905,OK,premise
128,ROOFTOP,143 DEWEY AVE,"143 Dewey Ave, East Providence, RI 02914, USA",ChIJm1sSE95a5IkR4oB84UJl-3k,"143 DEWEY AVE Providence, RI",41.8261389,-71.3600541,1,02914,OK,premise
129,ROOFTOP,302 POCASSET AVE,"302 Pocasset Ave, Providence, RI 02909, USA",ChIJMTpidV9P5IkRezn5wKZrwB8,"302 POCASSET AVE Providence, RI",41.8067368,-71.4566548,1,02909,OK,premise
130,RANGE_INTERPOLATED,29 RIVER ST,"29 River Ave, Providence, RI 02908, USA",EicyOSBSaXZlciBBdmUsIFByb3ZpZGVuY2UsIFJJIDAyOTA4LCBVU0EiGhIYChQKEgkhlS-opkXkiRGrp64CajhLuhAd,"29 RIVER ST Providence, RI",41.8285583,-71.4355784,1,02908,OK,street_address
131,ROOFTOP,637 DOUGLAS AVE,"637 Douglas Ave, Providence, RI 02908, USA",ChIJvc4IG1ZE5IkRafdZ3ikqDi8,"637 DOUGLAS AVE Providence, RI",41.8474485,-71.4304302,1,02908,OK,street_address
132,ROOFTOP,681 CHARLES,"681 Charles St, Providence, RI 02904, USA",ChIJlSsAL_JE5IkR8cwwL5YYkig,"681 CHARLES Providence, RI",41.855095,-71.420473,1,02904,OK,street_address
133,ROOFTOP,33 MADISON ST,"33 Madison St, Providence, RI 02907, USA",ChIJbfFsgH9P5IkRdJqu05TmFfE,"33 MADISON ST Providence, RI",41.8010853,-71.4300196,1,02907,OK,premise
134,ROOFTOP,821 ATWELLS AVE,"821 Atwells Ave, Providence, RI 02909, USA",ChIJvTiOfb1F5IkReiJX7e7RsYc,"821 ATWELLS AVE Providence, RI",41.82503699999999,-71.444284,1,02909,OK,street_address
135,ROOFTOP,57 BERGEN ST,"57 Bergen St, Providence, RI 02908, USA",ChIJSTII7KRF5IkRjljAEcqulIk,"57 BERGEN ST Providence, RI",41.8305355,-71.43997809999999,1,02908,OK,premise
136,ROOFTOP,19 WARREN ST,"19 Warren St, Providence, RI 02907, USA",ChIJl3fljHlF5IkRujwd2iz0TKo,"19 WARREN ST Providence, RI",41.8107901,-71.42452109999999,1,02907,OK,premise
137,ROOFTOP,168 CONGRESS AVE,"168 Congress Ave, Providence, RI 02907, USA",ChIJudKQNYFP5IkRqcgQPBO5VDI,"168 CONGRESS AVE Providence, RI",41.7988892,-71.4242544,1,02907,OK,premise
138,ROOFTOP,34 MILK ST,"34 Milk St, Providence, RI 02905, USA",ChIJmSsKZ2RF5IkRaL1UgnpEV2k,"34 MILK ST Providence, RI",41.8067327,-71.4145602,1,02905,OK,premise
139,ROOFTOP,116 HENDRICK ST,"116 Hendrick St, Providence, RI 02908, USA",ChIJgXKKcL5F5IkR74AyTbr6ATs,"116 HENDRICK ST Providence, RI",41.8274108,-71.4482684,1,02908,OK,premise
140,ROOFTOP,101 PINE ST,"McNulty Hall, 101 Pine St, Providence, RI 02903, USA",ChIJr1ulYRRF5IkRGOv3OHYImeI,"101 PINE ST Providence, RI",41.8217306,-71.4109653,1,02903,OK,premise
141,ROOFTOP,142 CHAD BROWN ST,"142 Chad Brown St, Providence, RI 02908, USA",ChIJ00jI-ABF5IkRTtVbHue_Q5c,"142 CHAD BROWN ST Providence, RI",41.838916,-71.427376,1,02908,OK,street_address
142,ROOFTOP,565 BRANCH AVE,"565 Branch Ave, Providence, RI 02904, USA",ChIJq5JozfBE5IkRfQ-RNIfE4ic,"565 BRANCH AVE Providence, RI",41.852181,-71.423892,1,02904,OK,street_address
143,ROOFTOP,69 LABAN ST,"69 Laban St, Providence, RI 02909, USA",ChIJZ65fk41F5IkRbSP1JICx7Po,"69 LABAN ST Providence, RI",41.8153063,-71.4492868,1,02909,OK,premise
144,ROOFTOP,10 NEWCOMB ST,"10 Newcomb St, Providence, RI 02908, USA",ChIJV5my3P5E5IkRq8XB4MriklI,"10 NEWCOMB ST Providence, RI",41.8450743,-71.4262511,1,02908,OK,premise
145,ROOFTOP,39 BERGEN STREET,"39 Bergen St, Providence, RI 02908, USA",ChIJScUV5qRF5IkRhcrIzOEIPb0,"39 BERGEN STREET Providence, RI",41.83096099999999,-71.4400393,1,02908,OK,street_address
146,ROOFTOP,65 MINK RD,"65 Mink Rd, Providence, RI 02908, USA",ChIJs9srUExE5IkR9yVi4aul_T4,"65 MINK RD Providence, RI",41.8473852,-71.4453381,1,02908,OK,premise
147,ROOFTOP,337 PLAINFIELD ST,"337 Plainfield St, Providence, RI 02909, USA",ChIJwaeXyo1F5IkRWGrkI1NSPz0,"337 PLAINFIELD ST Providence, RI",41.8138988,-71.4491733,1,02909,OK,premise
148,ROOFTOP,44 VANDEWATER ST,"44 Vandewater St, Providence, RI 02908, USA",ChIJe79kl1dE5IkRb--H4cJ7PCw,"44 VANDEWATER ST Providence, RI",41.8508052,-71.43213949999999,1,02908,OK,premise
149,ROOFTOP,15 VINEYARD ST,"15 Vineyard St, Providence, RI 02907, USA",ChIJPxoPMYBP5IkRszfoJwQGBdA,"15 VINEYARD ST Providence, RI",41.801229,-71.428978,1,02907,OK,street_address
150,ROOFTOP,55 FAIRVIEW,"55 Fairview St, Providence, RI 02908, USA",ChIJq33WH7xF5IkR44yxwby9DyE,"55 FAIRVIEW Providence, RI",41.8293128,-71.4477362,1,02908,OK,street_address
151,ROOFTOP,101 BEACON AVE,"101 Beacon Ave, Providence, RI 02903, USA",ChIJGZUrjW5F5IkRjMJdtZg_HNQ,"101 BEACON AVE Providence, RI",41.81335,-71.4128563,1,02903,OK,street_address
152,ROOFTOP,66 PORTLAND ST,"66 Portland St, Providence, RI 02907, USA",ChIJbXHI3m9F5IkR9mu-q1sRelI,"66 PORTLAND ST Providence, RI",41.81245639999999,-71.41780709999999,1,02907,OK,premise
153,ROOFTOP,102 WESLEYAN AVE,"102 Wesleyan Ave, Providence, RI 02907, USA",ChIJez-lkHtF5IkRtCFmB9G-r94,"102 WESLEYAN AVE Providence, RI",41.8076769,-71.4217985,1,02907,OK,premise
154,ROOFTOP,182 SISSON ST,"182 Sisson St, Providence, RI 02909, USA",ChIJuwkAw8BF5IkRnq_K3xQ_Uhk,"182 SISSON ST Providence, RI",41.8306804,-71.45570099999999,1,02909,OK,premise
155,ROOFTOP,203 HARRISON ST,"203 Harrison St, Providence, RI 02907, USA",ChIJf7coRXhF5IkR0S_VqTVmj5Y,"203 HARRISON ST Providence, RI",41.8108862,-71.4278794,1,02907,OK,premise
156,ROOFTOP,22 HALTON ST,"22 Halton St, Providence, RI 02907, USA",ChIJp5QWQn5P5IkRt4eD58A1DKE,"22 HALTON ST Providence, RI",41.8025682,-71.434327,1,02907,OK,premise
157,ROOFTOP,276 INDIANA AVE,"276 Indiana Ave, Providence, RI 02905, USA",ChIJAyL3DvJP5IkRPs0Ekk1vuvI,"276 INDIANA AVE Providence, RI",41.7894116,-71.4012475,1,02905,OK,premise
158,RANGE_INTERPOLATED,122 TERRACE AVE,"122 Terrace Ave, Cranston, RI 02920, USA",EigxMjIgVGVycmFjZSBBdmUsIENyYW5zdG9uLCBSSSAwMjkyMCwgVVNBIhoSGAoUChIJE9KzxWFP5IkRnPo40gA64U0Qeg,"122 TERRACE AVE Providence, RI",41.8062227,-71.4500896,1,02920,OK,street_address
159,ROOFTOP,70 BABCOCK ST,"70 Babcock St, Providence, RI 02905, USA",ChIJFU2OvZJP5IkRlgX0Ys-nhC4,"70 BABCOCK ST Providence, RI",41.7892423,-71.40764879999999,1,02905,OK,premise
160,ROOFTOP,374 POTTERS AVE,"374 Potters Ave, Providence, RI 02907, USA",ChIJ5-IfeX1F5IkR26E8pZLBKpM,"374 POTTERS AVE Providence, RI",41.8022663,-71.4208591,1,02907,OK,premise
161,ROOFTOP,78 MAWNEY ST,"78 Mawney St, Providence, RI 02907, USA",ChIJJ8mz039F5IkRYMgTaqIVL8s,"78 MAWNEY ST Providence, RI",41.8033577,-71.4271766,1,02907,OK,premise
162,ROOFTOP,33 SCENIC VIEW DRIVE,"33 E Scenic View Dr, Johnston, RI 02919, USA",ChIJb3SGDedH5IkRHsLKr4XQtXU,"33 SCENIC VIEW DRIVE Providence, RI",41.830048,-71.550365,1,02919,OK,street_address
163,ROOFTOP,72 FORD ST,"72 Ford St, Providence, RI 02907, USA",ChIJhz4DEoJF5IkRYNvhif38gcc,"72 FORD ST Providence, RI",41.8092175,-71.4307874,1,02907,OK,premise
164,ROOFTOP,220 STERLING AVE,"220 Sterling Ave, Providence, RI 02909, USA",ChIJxcvaIYtF5IkRRFsXsOux8CU,"220 STERLING AVE Providence, RI",41.8097144,-71.4522226,1,02909,OK,premise
165,ROOFTOP,64 CANDACE ST,"64 Candace St, Providence, RI 02908, USA",ChIJk0HSwgNF5IkRyXzpYmvU4UE,"64 CANDACE ST Providence, RI",41.837223,-71.42324099999999,1,02908,OK,street_address
166,ROOFTOP,145 JULIAN ST,"145 Julian St, Providence, RI 02909, USA",ChIJMT9lrZdF5IkRw55MIL-JP6Q,"145 JULIAN ST Providence, RI",41.82324790000001,-71.4446367,1,02909,OK,premise
167,ROOFTOP,111 DONELSON ST,"111 Donelson St, Providence, RI 02908, USA",ChIJ363n1P1E5IkR40uRc4jIaw8,"111 DONELSON ST Providence, RI",41.843115,-71.423779,1,02908,OK,premise
168,ROOFTOP,1346 EDDY ST,"1346 Eddy St, Providence, RI 02905, USA",ChIJlxwAkO1P5IkRbw4X9DKJgag,"1346 EDDY ST Providence, RI",41.7885616,-71.4024536,1,02905,OK,premise
169,ROOFTOP,80 NORTH ROAD,"80 N Rd, Pascoag, RI 02859, USA",ChIJ4x5r8as95IkRbiCCdrjJa-w,"80 NORTH ROAD Providence, RI",41.968881,-71.709339,1,02859,OK,street_address
170,ROOFTOP,399 WEST AVE,"399 West Ave, Pawtucket, RI 02860, USA",ChIJwWqhWaVE5IkRNuHDmARequg,"399 WEST AVE Providence, RI",41.8654741,-71.3945671,1,02860,OK,street_address
171,ROOFTOP,8 SUMTER AVE,"8 Sumter St, Providence, RI 02907, USA",ChIJRZ-TGYlP5IkRJYy62VRdsU4,"8 SUMTER AVE Providence, RI",41.797445,-71.414457,1,02907,OK,street_address
172,ROOFTOP,177 LINWOOD AVE,"177 Linwood Ave, Providence, RI 02907, USA",ChIJvzId_4BF5IkR2HnlwdolOqE,"177 LINWOOD AVE Providence, RI",41.8061269,-71.433082,1,02907,OK,street_address
173,ROOFTOP,72 BRIDGHAM ST,"72 Bridgham St, Providence, RI 02907, USA",ChIJkz4ze3dF5IkRUEAzeSKp0To,"72 BRIDGHAM ST Providence, RI",41.8127549,-71.42627999999999,1,02907,OK,premise
174,ROOFTOP,21 MARVIN ST,"21 Marvin St, Providence, RI 02909, USA",ChIJuSBXzYRF5IkRWk5Qb2bTpF0,"21 MARVIN ST Providence, RI",41.81432059999999,-71.4380669,1,02909,OK,premise
175,ROOFTOP,290 DUDLEY ST,"290 Dudley St, Providence, RI 02907, USA",ChIJpdp7s3pF5IkRDLQXeSLRHSw,"290 DUDLEY ST Providence, RI",41.8101609,-71.4182245,1,02907,OK,premise
176,ROOFTOP,285 NARRAGANSETT AVE,"285 Narragansett Ave, Barrington, RI 02806, USA",ChIJqamDALFR5IkRzz5wxZ1vYGc,"285 NARRAGANSETT AVE Providence, RI",41.7444685,-71.34980139999999,1,02806,OK,premise
177,ROOFTOP,91 PROVIDENCE ST,"91 Providence St, Providence, RI 02907, USA",ChIJ2YAD5W9F5IkRL_UH25cNujc,"91 PROVIDENCE ST Providence, RI",41.8116505,-71.4174809,1,02907,OK,premise
178,ROOFTOP,272 SMITH,"272 Smith St, Providence, RI 02908, USA",ChIJ-xbr_wRF5IkRgrgyUr-6aIQ,"272 SMITH Providence, RI",41.833182,-71.4209569,1,02908,OK,premise
179,ROOFTOP,104 TELL ST,"104 Tell St, Providence, RI 02909, USA",ChIJD7jID59F5IkRW2MOUQYets8,"104 TELL ST Providence, RI",41.821547,-71.4335774,1,02909,OK,premise
180,ROOFTOP,384 POTTERS AVE,"384 Potters Ave, Providence, RI 02907, USA",ChIJG3u9gX1F5IkRC3FJ7gE2n10,"384 POTTERS AVE Providence, RI",41.8021255,-71.4211467,1,02907,OK,premise
181,ROOFTOP,1115 DOUGLAS AVE,"1115 Douglas Ave, North Providence, RI 02904, USA",ChIJbdrcz0RE5IkRtYFvu4HCW40,"1115 DOUGLAS AVE Providence, RI",41.856556,-71.44244599999999,1,02904,OK,street_address
182,ROOFTOP,60 URBAN AVE,"60 Urban Ave, North Providence, RI 02904, USA",ChIJQVZZoI9E5IkRYGiqaQ-ZZds,"60 URBAN AVE Providence, RI",41.867799,-71.420913,1,02904,OK,street_address
183,ROOFTOP,486 SMITH ST,"486 Smith St, Providence, RI 02908, USA",ChIJIcguJwdF5IkRrAoaR3SQpIE,"486 SMITH ST Providence, RI",41.8356721,-71.4271302,1,02908,OK,premise
184,ROOFTOP,327 ADMIRAL ST,"327 Admiral St, Providence, RI 02908, USA",ChIJoz7M1f5E5IkRGiboYfHBkR8,"327 ADMIRAL ST Providence, RI",41.845856,-71.426801,1,02908,OK,street_address
185,ROOFTOP,79 POCASSET AVE,"79 Pocasset Ave, Providence, RI 02909, USA",ChIJkQmagIxF5IkRcdF-enIgU9w,"79 POCASSET AVE Providence, RI",41.81186719999999,-71.4507216,1,02909,OK,premise
186,ROOFTOP,485 PLAINFIELD ST,"485 Plainfield St, Providence, RI 02909, USA",ChIJWRWAR_NF5IkRK2RIBV7Gbnk,"485 PLAINFIELD ST Providence, RI",41.8135424,-71.45452,1,02909,OK,premise
187,ROOFTOP,100 ORTOLEVA DR,"100 Ortoleva Dr, Providence, RI 02909, USA",ChIJSfocvMFF5IkRa4EaomYv_YQ,"100 ORTOLEVA DR Providence, RI",41.828774,-71.457821,1,02909,OK,street_address
188,ROOFTOP,47 MANUEL AVE,"47 Manuel Ave, Johnston, RI 02919, USA",ChIJ4yDEGOBF5IkRdwz8G217iQY,"47 MANUEL AVE Providence, RI",41.8293468,-71.47698849999999,1,02919,OK,premise
189,ROOFTOP,1735 CHALKSTONE AVE,"1735 Chalkstone Ave, Providence, RI 02909, USA",ChIJc1IjTttF5IkRxtjKP9r62E0,"1735 CHALKSTONE AVE Providence, RI",41.83405560000001,-71.4660435,1,02909,OK,premise
190,ROOFTOP,57 ALTHEA DR,"57 Althea St, Providence, RI 02907, USA",ChIJ4bAYx4FF5IkRQtY6acDY-2U,"57 ALTHEA DR Providence, RI",41.80683,-71.4312513,1,02907,OK,premise
191,ROOFTOP,38 ANTHONY AVE,"38 Anthony Ave, Providence, RI 02907, USA",ChIJmzuElH1P5IkRX9mK8iHDzIk,"38 ANTHONY AVE Providence, RI",41.8037171,-71.4374886,1,02907,OK,premise
192,ROOFTOP,114 CONGRESS AVE,"114 Congress Ave, Providence, RI 02907, USA",ChIJr_-m4YZP5IkRU0rXMp-y9ZQ,"114 CONGRESS AVE Providence, RI",41.799563,-71.422271,1,02907,OK,street_address
193,ROOFTOP,206 ELMWOOD AVE,"206 Elmwood Ave, Providence, RI 02907, USA",ChIJN8bQULZF5IkRqgtsI6fPUKs,"206 ELMWOOD AVE Providence, RI",41.8055799,-71.4248288,1,02907,OK,street_address
194,ROOFTOP,167 ADMIRAL ST,"167 Admiral St, Providence, RI 02908, USA",ChIJQTiIS_xE5IkRHnskJu9wGgU,"167 ADMIRAL ST Providence, RI",41.8431288,-71.4221208,1,02908,OK,premise
195,ROOFTOP,53 ROCHAMBEAU AVE,"53 Rochambeau Ave, Providence, RI 02906, USA",ChIJx6EH19xE5IkRzabXWgfGPHs,"53 ROCHAMBEAU AVE Providence, RI",41.8464606,-71.40299639999999,1,02906,OK,premise
196,ROOFTOP,35 LOOKOUT AVE,"35 Lookout Ave, North Providence, RI 02911, USA",ChIJI31ReDFE5IkR0Gyve6549c4,"35 LOOKOUT AVE Providence, RI",41.8525289,-71.4624376,1,02911,OK,premise
197,GEOMETRIC_CENTER,ELLERY ST  ,"Ellery St, Providence, RI 02909, USA",ChIJG-byUIRF5IkRkAs9eOqMh1A,"ELLERY ST   Providence, RI",41.8112069,-71.438225,1,02909,OK,route
198,ROOFTOP,76 LISBON ST,"76 Lisbon St, Providence, RI 02908, USA",ChIJ8QrP-6VF5IkRgogZePKIk1o,"76 LISBON ST Providence, RI",41.8329654,-71.4364302,1,02908,OK,premise
199,ROOFTOP,17 PAYTON ST,"17 Payton St, Providence, RI 02905, USA",ChIJGxi9FO1P5IkR6_T2JFCLx1A,"17 PAYTON ST Providence, RI",41.7882488,-71.4044018,1,02905,OK,premise
200,ROOFTOP,47 PARKIS AVE,"47 Parkis Ave, Providence, RI 02907, USA",ChIJt8ES1HtF5IkR0nbDL6v7Tf0,"47 PARKIS AVE Providence, RI",41.8092877,-71.4236746,1,02907,OK,premise
201,ROOFTOP,107 RUGGLES ST,"107 Ruggles St, Providence, RI 02908, USA",ChIJfYlPwQBF5IkRsH74OU4ooRo,"107 RUGGLES ST Providence, RI",41.8376606,-71.4281488,1,02908,OK,premise
202,RANGE_INTERPOLATED,19 BRANCH AVE,"19 Branch Ave, Providence, RI 02904, USA",EigxOSBCcmFuY2ggQXZlLCBQcm92aWRlbmNlLCBSSSAwMjkwNCwgVVNBIhoSGAoUChIJIT8M2OZE5IkR2GLhKTp-86wQEw,"19 BRANCH AVE Providence, RI",41.8429742,-71.4084611,1,02904,OK,street_address
203,ROOFTOP,140 LAUREL LN,"140 Laurel Ave, Providence, RI 02906, USA",ChIJj6noV9ZE5IkRuA17HGqHkSQ,"140 LAUREL LN Providence, RI",41.8376083,-71.3906363,1,02906,OK,premise
204,RANGE_INTERPOLATED,8 MAIN ST.,"8 N Main St, Providence, RI 02903, USA",EiY4IE4gTWFpbiBTdCwgUHJvdmlkZW5jZSwgUkkgMDI5MDMsIFVTQSIaEhgKFAoSCU8X-0sWReSJEd7QmI61UaulEAg,"8 MAIN ST. Providence, RI",41.82584689999999,-71.40830799999999,1,02903,OK,street_address
205,ROOFTOP,493 ACADEMY AVE,"493 Academy Ave, Providence, RI 02908, USA",ChIJZRd7n7FF5IkRMzwS5-ZwR5s,"493 ACADEMY AVE Providence, RI",41.83828250000001,-71.4445698,1,02908,OK,premise
206,ROOFTOP,128 HAROLD ST,"128 Harold St, Providence, RI 02908, USA",ChIJ3dU89KRF5IkRndphMdksWNM,"128 HAROLD ST Providence, RI",41.830408,-71.43910799999999,1,02908,OK,street_address
207,ROOFTOP,198 RIVER AVE,"198 River Ave, Providence, RI 02908, USA",ChIJB_gReKVF5IkRR6LVgo81kmU,"198 RIVER AVE Providence, RI",41.8331877,-71.4389285,1,02908,OK,premise
208,ROOFTOP,66 URBAN AVENUE,"66 Urban Ave, North Providence, RI 02904, USA",ChIJqYoSDo9E5IkRUdmK4gNOMeM,"66 URBAN AVENUE Providence, RI",41.867729,-71.42172649999999,1,02904,OK,premise
209,ROOFTOP,189 VERNDALE AVE,"189 Verndale Ave, Providence, RI 02905, USA",ChIJpdEh1ZNP5IkRqDQcoFiGXfg,"189 VERNDALE AVE Providence, RI",41.7883106,-71.4119626,1,02905,OK,premise
210,ROOFTOP,653 DOUGLAS,"653 Douglas Ave, Providence, RI 02908, USA",ChIJmWQJF1ZE5IkR7mqyg5azzJA,"653 DOUGLAS Providence, RI",41.8478042,-71.4307944,1,02908,OK,premise
211,ROOFTOP,75 LINWOOD AVE,"75 Linwood Ave, Providence, RI 02909, USA",ChIJjzMt3YZF5IkR0l93WhZMlqw,"75 LINWOOD AVE Providence, RI",41.8076032,-71.437208,1,02909,OK,street_address
212,ROOFTOP,63 BENEDICT ST,"63 Benedict St, Providence, RI 02907, USA",ChIJQUg-pYBF5IkRLi-97JaoZ1s,"63 BENEDICT ST Providence, RI",41.8047843,-71.4350146,1,02907,OK,premise
213,ROOFTOP,105 SUTTON ST,"105 Sutton St, Providence, RI 02903, USA",ChIJcx-LSXVF5IkR4MVZhrfghLY,"105 SUTTON ST Providence, RI",41.822068,-71.428551,1,02903,OK,street_address
214,ROOFTOP,25 OCEAN ST,"25 Ocean St, Providence, RI 02905, USA",ChIJKwUPrGZF5IkRDC58RrGf8Z8,"25 OCEAN ST Providence, RI",41.805412,-71.4117069,1,02905,OK,street_address
215,ROOFTOP,87 VEAZIE ST,"87 Veazie St, Providence, RI 02908, USA",ChIJXYYUb1ZE5IkRo0fzWkoscdQ,"87 VEAZIE ST Providence, RI",41.847823,-71.43213159999999,1,02908,OK,premise
216,ROOFTOP,123 GALILEO AVE,"123 Galileo Ave, Providence, RI 02909, USA",ChIJG9RI8cdF5IkRUuWKxJiKEAo,"123 GALILEO AVE Providence, RI",41.8354019,-71.4540777,1,02909,OK,premise
217,ROOFTOP,220 CARPENTER ST,"220 Carpenter St, Providence, RI 02903, USA",ChIJ4QLMRXRF5IkReccjADApJ30,"220 CARPENTER ST Providence, RI",41.8187337,-71.4260649,1,02903,OK,premise
218,ROOFTOP,125 MITCHELL ST,"125 Mitchell St, Providence, RI 02907, USA",ChIJlfdtL4dP5IkRR4uxURuk8uI,"125 MITCHELL ST Providence, RI",41.800293,-71.42332999999999,1,02907,OK,street_address
219,ROOFTOP,331 DOUGLAS AVE,"331 Douglas Ave, Providence, RI 02908, USA",ChIJVXqfuQFF5IkR_On1M-cAEc8,"331 DOUGLAS AVE Providence, RI",41.83975330000001,-71.4260398,1,02908,OK,street_address
220,RANGE_INTERPOLATED,2 DUNCAN RD,"2 Duncan Ave, Providence, RI 02906, USA",EicyIER1bmNhbiBBdmUsIFByb3ZpZGVuY2UsIFJJIDAyOTA2LCBVU0EiGhIYChQKEgkrpiWf4ETkiRGIPo65eKD_OBAC,"2 DUNCAN RD Providence, RI",41.8412896,-71.4081405,1,02906,OK,street_address
221,ROOFTOP,71 VERNON ST,"71 Vernon St, Providence, RI 02903, USA",ChIJEfllVnRF5IkRhjalJx9H3gU,"71 VERNON ST Providence, RI",41.8195373,-71.4264796,1,02903,OK,premise
222,ROOFTOP,82 SUMTER ST,"82 Sumter St, Providence, RI 02907, USA",ChIJ7ZPos4hP5IkRleJBkxCUs2I,"82 SUMTER ST Providence, RI",41.796683,-71.41702599999999,1,02907,OK,street_address
223,ROOFTOP,450 ACADEMY AVE,"450 Academy Ave, Providence, RI 02908, USA",ChIJPfs6ALFF5IkRk66qAEDG4LU,"450 ACADEMY AVE Providence, RI",41.8371694,-71.4449004,1,02908,OK,street_address
224,ROOFTOP,532 PLAINFIELD ST,"532 Plainfield St, Providence, RI 02909, USA",ChIJvXcvefNF5IkRZqClnn-6A4E,"532 PLAINFIELD ST Providence, RI",41.812961,-71.4564135,1,02909,OK,street_address
225,ROOFTOP,204 OHIO AVE,"204 Ohio Ave, Providence, RI 02905, USA",ChIJsfaPyPFP5IkRLbcO_NgDLP4,"204 OHIO AVE Providence, RI",41.78945,-71.397976,1,02905,OK,street_address
226,ROOFTOP,1325 SMITH ST,"1325 Smith St, Providence, RI 02908, USA",ChIJ0yNhbTVE5IkRQr9HZ43zWWs,"1325 SMITH ST Providence, RI",41.8477987,-71.4550517,1,02908,OK,premise
227,ROOFTOP,457 ELMWOOD AVE,"457 Elmwood Ave, Providence, RI 02907, USA",ChIJWRBFCIFP5IkRA_Dph4zKBBs,"457 ELMWOOD AVE Providence, RI",41.79977359999999,-71.4268519,1,02907,OK,premise
228,ROOFTOP,218 CALLA ST,"218 Calla St, Providence, RI 02905, USA",ChIJbSGew5NP5IkRd1EXI2kpD7I,"218 CALLA ST Providence, RI",41.7872852,-71.4112205,1,02905,OK,premise
229,RANGE_INTERPOLATED,20 MILL ST,"20 Mill St, Providence, RI 02903, USA",EiUyMCBNaWxsIFN0LCBQcm92aWRlbmNlLCBSSSAwMjkwMywgVVNBIhoSGAoUChIJS__8bBlF5IkR-5IS8ojhJToQFA,"20 MILL ST Providence, RI",41.8316396,-71.4106243,1,02903,OK,street_address
230,ROOFTOP,87 VERNON ST,"87 Vernon St, Providence, RI 02903, USA",ChIJ-xyzrHVF5IkRs-cvcIbKyh0,"87 VERNON ST Providence, RI",41.819365,-71.426976,1,02903,OK,street_address
231,ROOFTOP,867 MANTON AVE,"867 Manton Ave, Providence, RI 02909, USA",ChIJZSbpVNtF5IkRmeHzLr9X9Hg,"867 MANTON AVE Providence, RI",41.8334682,-71.4655361,1,02909,OK,street_address
232,ROOFTOP,23 N ROSE ST,"23 N Rose St, East Providence, RI 02914, USA",ChIJt8ZbysFa5IkRipLZgM--3dQ,"23 N ROSE ST Providence, RI",41.813491,-71.3600541,1,02914,OK,premise
233,ROOFTOP,700 WESTMINSTER ST,"700 Westminster St, Providence, RI 02903, USA",ChIJtQyYYHJF5IkRCtMJqFDst2U,"700 WESTMINSTER ST Providence, RI",41.8182518,-71.4193122,1,02903,OK,premise
234,ROOFTOP,18 KENT PLACE,"18 Kent Pl, Cranston, RI 02905, USA",ChIJNY5k9MRP5IkRtV0UYUxnSbE,"18 KENT PLACE Providence, RI",41.7724681,-71.3969407,1,02905,OK,premise
235,ROOFTOP,49 BURGESS AVE,"49 Burgess Ave, East Providence, RI 02914, USA",ChIJJWKISDVF5IkRg1D4i01oG4g,"49 BURGESS AVE Providence, RI",41.815827,-71.383129,1,02914,OK,street_address
236,ROOFTOP,314 LOWELL AVE,"314 Lowell Ave, Providence, RI 02909, USA",ChIJ49ez4fFF5IkRgX_v_AseD5s,"314 LOWELL AVE Providence, RI",41.8180688,-71.46089549999999,1,02909,OK,premise
237,ROOFTOP,157 WENDELL ST,"157 Wendell St, Providence, RI 02909, USA",ChIJ6ejnXIRF5IkRrXcuAL8MHpo,"157 WENDELL ST Providence, RI",41.81135099999999,-71.437586,1,02909,OK,street_address
238,ROOFTOP,78 SUTTON ST,"78 Sutton St, Providence, RI 02903, USA",ChIJnUpEtgpF5IkRE_sYs0hnTxE,"78 SUTTON ST Providence, RI",41.8227702,-71.4285518,1,02903,OK,premise
239,ROOFTOP,302 VERMONT ST,"302 Vermont Ave, Providence, RI 02905, USA",ChIJTYROwu1P5IkRrI4TSce3rm8,"302 VERMONT ST Providence, RI",41.7876407,-71.4012297,1,02905,OK,premise
240,ROOFTOP,93 GODDARD ST,"93 Goddard St, Providence, RI 02908, USA",ChIJO-vNZwRF5IkRCpP2wTRxGQ8,"93 GODDARD ST Providence, RI",41.8345781,-71.42170329999999,1,02908,OK,premise
241,ROOFTOP,155 MANTON STREET,"155 Manton Ave, Providence, RI 02909, USA",ChIJh7FrOJFF5IkRDxzgRpyBAec,"155 MANTON STREET Providence, RI",41.8198276,-71.44618299999999,1,02909,OK,street_address
242,ROOFTOP,554 UNION AVE,"554 Union Ave, Providence, RI 02909, USA",ChIJWT3pCV9P5IkRPdcr9rt0Dqc,"554 UNION AVE Providence, RI",41.806299,-71.4567103,1,02909,OK,street_address
243,ROOFTOP,9 LEAH ST,"9 Leah St, Providence, RI 02908, USA",ChIJY1ydepVF5IkRNyskr-E-hV0,"9 LEAH ST Providence, RI",41.8255616,-71.4513413,1,02908,OK,premise
244,ROOFTOP,113 HARRIET ST,"113 Harriet St, Providence, RI 02905, USA",ChIJo9HNAmJF5IkRxCwkUeNct30,"113 HARRIET ST Providence, RI",41.8010132,-71.4122409,1,02905,OK,premise
245,ROOFTOP,59 CENTRAL AVE,"59 Central St, Providence, RI 02907, USA",ChIJcfVY2XBF5IkRTBrp1xnbzc4,"59 CENTRAL AVE Providence, RI",41.8139787,-71.42291220000001,1,02907,OK,premise
246,ROOFTOP,1537 CHALKSTONE AVE,"1537 Chalkstone Ave, Providence, RI 02909, USA",ChIJy_hNGcRF5IkRLrYzCrC2lXI,"1537 CHALKSTONE AVE Providence, RI",41.8333887,-71.4600143,1,02909,OK,premise
247,ROOFTOP,88 HUDSON ST,"88 Hudson St, Providence, RI 02909, USA",ChIJbfYBXINF5IkRmw0mEymSH4U,"88 HUDSON ST Providence, RI",41.8130066,-71.4355231,1,02909,OK,premise
248,ROOFTOP,64 AYRAULT ST,"64 Ayrault St, Providence, RI 02908, USA",ChIJf7wJ7QdF5IkRWA0atPXVpDg,"64 AYRAULT ST Providence, RI",41.8331406,-71.4290302,1,02908,OK,premise
249,ROOFTOP,27 GILLEN AVE,"27 Gillen Ave, North Providence, RI 02904, USA",ChIJx0_6M4ZE5IkRHJCsKPH5rhQ,"27 GILLEN AVE Providence, RI",41.870961,-71.42663399999999,1,02904,OK,street_address
